[{"OBJECT_NAME":"SPAWAR-CAL-O","OBJECT_ID":"2018-099J","EPOCH":"2026-03-09T17:45:15.080832","MEAN_MOTION":15.31356755,"ECCENTRICITY":0.00072392,"INCLINATION":97.4452,"RA_OF_ASC_NODE":132.0993,"ARG_OF_PERICENTER":285.067,"MEAN_ANOMALY":74.977,"EPHEMERIS_TYPE":0,"CLASSIFICATION_TYPE":"U","NORAD_CAT_ID":43766,"ELEMENT_SET_NO":999,"REV_AT_EPOCH":39828,"BSTAR":0.00069663212,"MEAN_MOTION_DOT":0.00021069,"MEAN_MOTION_DDOT":0},{"OBJECT_NAME":"STARLINK-34403","OBJECT_ID":"2025-130F","EPOCH":"2026-03-09T11:25:56.227008","MEAN_MOTION":15.30206311,"ECCENTRICITY":8.465e-5,"INCLINATION":53.1588,"RA_OF_ASC_NODE":89.2962,"ARG_OF_PERICENTER":88.1397,"MEAN_ANOMALY":271.97,"EPHEMERIS_TYPE":0,"CLASSIFICATION_TYPE":"U","NORAD_CAT_ID":64443,"ELEMENT_SET_NO":999,"REV_AT_EPOCH":4067,"BSTAR":0.00078102451,"MEAN_MOTION_DOT":0.00022848,"MEAN_MOTION_DDOT":0}]
